{
  "type": "FeatureCollection",
  "features": [
    {
      "type": "Feature",
      "properties": {
        "norad_id": 38857,
        "name": "GSAT0103 (GALILEO-FM3)",
        "group": "gnss",
        "lat": 40.0707759043666,
        "lon": -108.21222542930893,
        "alt_km": 23222.514929003384,
        "timestamp": "2025-12-06T16:45:42.965339+00:00",
        "meta_object_name": "GSAT0103 (GALILEO-FM3)",
        "meta_object_id": "2012-055A",
        "meta_epoch": "2025-12-01T05:01:21.613152",
        "meta_mean_motion": 1.70473256,
        "meta_eccentricity": 0.00023005,
        "meta_inclination": 55.6823,
        "meta_ra_of_asc_node": 106.9832,
        "meta_arg_of_pericenter": 267.1494,
        "meta_mean_anomaly": 92.7944,
        "meta_ephemeris_type": 0,
        "meta_classification_type": "U",
        "meta_norad_cat_id": 38857,
        "meta_element_set_no": 999,
        "meta_rev_at_epoch": 8163,
        "meta_bstar": 0,
        "meta_mean_motion_dot": 4.2e-07,
        "meta_mean_motion_ddot": 0,
        "tle_line1": "1 38857U 12055A   25335.20927793  .00000042  00000+0  00000+0 0  9995",
        "tle_line2": "2 38857  55.6823 106.9832 0002300 267.1494  92.7944  1.70473256 81637"
      },
      "geometry": {
        "type": "Point",
        "coordinates": [
          -108.21222542930893,
          40.0707759043666
        ]
      }
    },
    {
      "type": "Feature",
      "properties": {
        "norad_id": 38953,
        "name": "BEIDOU-2 G6 (C02)",
        "group": "gnss",
        "lat": -1.593827344597047,
        "lon": 51.31078266814226,
        "alt_km": 35764.86655727766,
        "timestamp": "2025-12-06T16:45:42.965351+00:00",
        "meta_object_name": "BEIDOU-2 G6 (C02)",
        "meta_object_id": "2012-059A",
        "meta_epoch": "2025-12-06T03:47:35.748960",
        "meta_mean_motion": 1.00270309,
        "meta_eccentricity": 0.00075213,
        "meta_inclination": 3.9317,
        "meta_ra_of_asc_node": 75.5675,
        "meta_arg_of_pericenter": 289.3051,
        "meta_mean_anomaly": 211.2727,
        "meta_ephemeris_type": 0,
        "meta_classification_type": "U",
        "meta_norad_cat_id": 38953,
        "meta_element_set_no": 999,
        "meta_rev_at_epoch": 4797,
        "meta_bstar": 0,
        "meta_mean_motion_dot": -1.69e-06,
        "meta_mean_motion_ddot": 0,
        "tle_line1": "1 38953U 12059A   25340.15805265 -.00000169  00000+0  00000+0 0  9996",
        "tle_line2": "2 38953   3.9317  75.5675 0007521 289.3051 211.2727  1.00270309 47972"
      },
      "geometry": {
        "type": "Point",
        "coordinates": [
          51.31078266814226,
          -1.593827344597047
        ]
      }
    },
    {
      "type": "Feature",
      "properties": {
        "norad_id": 38977,
        "name": "LUCH 5B (SDCM/PRN 125)",
        "group": "gnss",
        "lat": -9.897367277615277,
        "lon": -49.2700308727395,
        "alt_km": 35776.25766666291,
        "timestamp": "2025-12-06T16:45:42.965364+00:00",
        "meta_object_name": "LUCH 5B (SDCM/PRN 125)",
        "meta_object_id": "2012-061A",
        "meta_epoch": "2025-12-05T23:12:38.603808",
        "meta_mean_motion": 1.00272178,
        "meta_eccentricity": 0.00074333,
        "meta_inclination": 10.0624,
        "meta_ra_of_asc_node": 51.767,
        "meta_arg_of_pericenter": 189.4366,
        "meta_mean_anomaly": 165.6208,
        "meta_ephemeris_type": 0,
        "meta_classification_type": "U",
        "meta_norad_cat_id": 38977,
        "meta_element_set_no": 999,
        "meta_rev_at_epoch": 4766,
        "meta_bstar": 0,
        "meta_mean_motion_dot": -1.35e-06,
        "meta_mean_motion_ddot": 0,
        "tle_line1": "1 38977U 12061A   25339.96711347 -.00000135  00000+0  00000+0 0  9992",
        "tle_line2": "2 38977  10.0624  51.7670 0007433 189.4366 165.6208  1.00272178 47668"
      },
      "geometry": {
        "type": "Point",
        "coordinates": [
          -49.2700308727395,
          -9.897367277615277
        ]
      }
    },
    {
      "type": "Feature",
      "properties": {
        "norad_id": 39155,
        "name": "COSMOS 2485 (747)",
        "group": "gnss",
        "lat": 34.76780028914616,
        "lon": -118.51491323846271,
        "alt_km": 19123.59712225924,
        "timestamp": "2025-12-06T16:45:42.965377+00:00",
        "meta_object_name": "COSMOS 2485 (747)",
        "meta_object_id": "2013-019A",
        "meta_epoch": "2025-12-05T02:32:45.729312",
        "meta_mean_motion": 2.13102875,
        "meta_eccentricity": 0.00246247,
        "meta_inclination": 65.3094,
        "meta_ra_of_asc_node": 80.124,
        "meta_arg_of_pericenter": 229.2984,
        "meta_mean_anomaly": 130.4888,
        "meta_ephemeris_type": 0,
        "meta_classification_type": "U",
        "meta_norad_cat_id": 39155,
        "meta_element_set_no": 999,
        "meta_rev_at_epoch": 9814,
        "meta_bstar": 0,
        "meta_mean_motion_dot": -2.1e-07,
        "meta_mean_motion_ddot": 0,
        "tle_line1": "1 39155U 13019A   25339.10608483 -.00000021  00000+0  00000+0 0  9991",
        "tle_line2": "2 39155  65.3094  80.1240 0024624 229.2984 130.4888  2.13102875 98144"
      },
      "geometry": {
        "type": "Point",
        "coordinates": [
          -118.51491323846271,
          34.76780028914616
        ]
      }
    },
    {
      "type": "Feature",
      "properties": {
        "norad_id": 39166,
        "name": "GPS BIIF-4  (PRN 27)",
        "group": "gnss",
        "lat": -19.982753225063192,
        "lon": -98.13615826900809,
        "alt_km": 20075.60446690079,
        "timestamp": "2025-12-06T16:45:42.965389+00:00",
        "meta_object_name": "GPS BIIF-4  (PRN 27)",
        "meta_object_id": "2013-023A",
        "meta_epoch": "2025-12-02T17:50:49.750368",
        "meta_mean_motion": 2.00565046,
        "meta_eccentricity": 0.0137297,
        "meta_inclination": 54.6608,
        "meta_ra_of_asc_node": 276.9746,
        "meta_arg_of_pericenter": 48.5033,
        "meta_mean_anomaly": 312.6627,
        "meta_ephemeris_type": 0,
        "meta_classification_type": "U",
        "meta_norad_cat_id": 39166,
        "meta_element_set_no": 999,
        "meta_rev_at_epoch": 9194,
        "meta_bstar": 0,
        "meta_mean_motion_dot": -3.8e-07,
        "meta_mean_motion_ddot": 0,
        "tle_line1": "1 39166U 13023A   25336.74363137 -.00000038  00000+0  00000+0 0  9997",
        "tle_line2": "2 39166  54.6608 276.9746 0137297  48.5033 312.6627  2.00565046 91947"
      },
      "geometry": {
        "type": "Point",
        "coordinates": [
          -98.13615826900809,
          -19.982753225063192
        ]
      }
    },
    {
      "type": "Feature",
      "properties": {
        "norad_id": 39199,
        "name": "IRNSS-1A",
        "group": "gnss",
        "lat": -23.689898880923273,
        "lon": 28.38457767083401,
        "alt_km": 35846.3435465113,
        "timestamp": "2025-12-06T16:45:42.965400+00:00",
        "meta_object_name": "IRNSS-1A",
        "meta_object_id": "2013-034A",
        "meta_epoch": "2025-12-02T19:49:26.431104",
        "meta_mean_motion": 1.00279053,
        "meta_eccentricity": 0.00216608,
        "meta_inclination": 35.2852,
        "meta_ra_of_asc_node": 66.6964,
        "meta_arg_of_pericenter": 185.4059,
        "meta_mean_anomaly": 172.3398,
        "meta_ephemeris_type": 0,
        "meta_classification_type": "U",
        "meta_norad_cat_id": 39199,
        "meta_element_set_no": 999,
        "meta_rev_at_epoch": 4539,
        "meta_bstar": 0,
        "meta_mean_motion_dot": 6.5e-07,
        "meta_mean_motion_ddot": 0,
        "tle_line1": "1 39199U 13034A   25336.82600036  .00000065  00000+0  00000+0 0  9995",
        "tle_line2": "2 39199  35.2852  66.6964 0021660 185.4059 172.3398  1.00279053 45393"
      },
      "geometry": {
        "type": "Point",
        "coordinates": [
          28.38457767083401,
          -23.689898880923273
        ]
      }
    },
    {
      "type": "Feature",
      "properties": {
        "norad_id": 39533,
        "name": "GPS BIIF-5  (PRN 30)",
        "group": "gnss",
        "lat": -16.102801691283386,
        "lon": 144.87409911402855,
        "alt_km": 20265.516874223013,
        "timestamp": "2025-12-06T16:45:42.965412+00:00",
        "meta_object_name": "GPS BIIF-5  (PRN 30)",
        "meta_object_id": "2014-008A",
        "meta_epoch": "2025-12-05T17:30:27.207648",
        "meta_mean_motion": 2.00573953,
        "meta_eccentricity": 0.00790348,
        "meta_inclination": 53.63,
        "meta_ra_of_asc_node": 157.2106,
        "meta_arg_of_pericenter": 226.4047,
        "meta_mean_anomaly": 132.9556,
        "meta_ephemeris_type": 0,
        "meta_classification_type": "U",
        "meta_norad_cat_id": 39533,
        "meta_element_set_no": 999,
        "meta_rev_at_epoch": 8580,
        "meta_bstar": 0,
        "meta_mean_motion_dot": 6.8e-07,
        "meta_mean_motion_ddot": 0,
        "tle_line1": "1 39533U 14008A   25339.72948157  .00000068  00000+0  00000+0 0  9993",
        "tle_line2": "2 39533  53.6300 157.2106 0079034 226.4047 132.9556  2.00573953 85808"
      },
      "geometry": {
        "type": "Point",
        "coordinates": [
          144.87409911402855,
          -16.102801691283386
        ]
      }
    }
  ]
}